[
    {
        "city": "Касерес",
        "building": "Бункер 46",
        "street": "Центральная улица 26",
        "postal_code": "308384",
        "floors": 8,
        "year": null,
        "parking": "есть",
        "rating": 3.3,
        "views": 29193
    },
    {
        "city": "Ташкент",
        "building": "Дуплянка 53",
        "street": "Лесная улица 35",
        "postal_code": "489444",
        "floors": 4,
        "year": null,
        "parking": "есть",
        "rating": 3.5,
        "views": 53074
    },
    {
        "city": "Алма-Ата",
        "building": "Ферма 74",
        "street": "Зимняя улица 93",
        "postal_code": "731560",
        "floors": 8,
        "year": null,
        "parking": "есть",
        "rating": 0.4,
        "views": 23752
    },
    {
        "city": "Сория",
        "building": "Свиноферма 5",
        "street": "Минская улица 69",
        "postal_code": "366254",
        "floors": 9,
        "year": null,
        "parking": "есть",
        "rating": 1.0,
        "views": 66507
    },
    {
        "city": "Гранада",
        "building": "Вилла 12",
        "street": "Морская улица 76",
        "postal_code": "680510",
        "floors": 6,
        "year": null,
        "parking": "есть",
        "rating": 1.4,
        "views": 68653
    },
    {
        "city": "Гранада",
        "building": "Парк 91",
        "street": "Весенняя улица 7",
        "postal_code": "704057",
        "floors": 5,
        "year": null,
        "parking": "есть",
        "rating": 4.5,
        "views": 84770
    },
    {
        "city": "Куэнка",
        "building": "Причал 53",
        "street": "Спортивная улица 64",
        "postal_code": "903133",
        "floors": 5,
        "year": null,
        "parking": "есть",
        "rating": 4.2,
        "views": 90383
    },
    {
        "city": "Любляна",
        "building": "Кубло 76",
        "street": "Солнечная улица 100",
        "postal_code": "140507",
        "floors": 3,
        "year": null,
        "parking": "есть",
        "rating": 3.1,
        "views": 70028
    },
    {
        "city": "Таллин",
        "building": "Развязка 21",
        "street": "Московская улица 64",
        "postal_code": "482048",
        "floors": 4,
        "year": null,
        "parking": "есть",
        "rating": 1.7,
        "views": 80762
    },
    {
        "city": "Мурсия",
        "building": "Водопровод 66",
        "street": "Лесная улица 50",
        "postal_code": "264575",
        "floors": 2,
        "year": null,
        "parking": "есть",
        "rating": 0.9,
        "views": 11041
    },
    {
        "city": "Семана",
        "building": "Курятник 75",
        "street": "Московская улица 20",
        "postal_code": "722299",
        "floors": 2,
        "year": null,
        "parking": "есть",
        "rating": 2.3,
        "views": 64865
    },
    {
        "city": "Хихон",
        "building": "Вокзал 94",
        "street": "Летняя улица 15",
        "postal_code": "142657",
        "floors": 7,
        "year": null,
        "parking": "есть",
        "rating": 3.9,
        "views": 12831
    },
    {
        "city": "Авилес",
        "building": "Скворечник 68",
        "street": "Полевая улица 35",
        "postal_code": "660467",
        "floors": 1,
        "year": null,
        "parking": "есть",
        "rating": 1.4,
        "views": 48935
    },
    {
        "city": "Алькала-де-Энарес",
        "building": "Театр 77",
        "street": "Садовая улица 50",
        "postal_code": "194591",
        "floors": 7,
        "year": null,
        "parking": "есть",
        "rating": 1.0,
        "views": 60899
    },
    {
        "city": "Москва",
        "building": "Ферма 1",
        "street": "Московская улица 23",
        "postal_code": "228873",
        "floors": 9,
        "year": null,
        "parking": "есть",
        "rating": 1.4,
        "views": 83910
    },
    {
        "city": "Тудела",
        "building": "Вилла 6",
        "street": "Садовая улица 96",
        "postal_code": "167933",
        "floors": 4,
        "year": null,
        "parking": "есть",
        "rating": 2.5,
        "views": 99223
    },
    {
        "city": "София",
        "building": "Водопровод 31",
        "street": "Юбилейная улица 10",
        "postal_code": "453780",
        "floors": 7,
        "year": null,
        "parking": "есть",
        "rating": 0.2,
        "views": 88343
    },
    {
        "city": "Трухильо",
        "building": "Ферма 62",
        "street": "Спортивная улица 56",
        "postal_code": "784837",
        "floors": 10,
        "year": null,
        "parking": "есть",
        "rating": 0.7,
        "views": 96992
    },
    {
        "city": "Сантьяго-де-Компостела",
        "building": "Детский сад 60",
        "street": "Лесная улица 31",
        "postal_code": "874918",
        "floors": 10,
        "year": null,
        "parking": "есть",
        "rating": 1.7,
        "views": 67616
    },
    {
        "city": "Астана",
        "building": "Порт 42",
        "street": "Центральная улица 43",
        "postal_code": "162168",
        "floors": 9,
        "year": null,
        "parking": "есть",
        "rating": 4.9,
        "views": 12016
    },
    {
        "city": "Санхенхо",
        "building": "Мануфактура 88",
        "street": "Парковая улица 94",
        "postal_code": "968276",
        "floors": 1,
        "year": null,
        "parking": "есть",
        "rating": 1.6,
        "views": 89829
    },
    {
        "city": "Киев",
        "building": "Пасека 79",
        "street": "Петербургская улица 50",
        "postal_code": "942936",
        "floors": 5,
        "year": null,
        "parking": "есть",
        "rating": 3.9,
        "views": 78662
    },
    {
        "city": "Эльче",
        "building": "Котельная 91",
        "street": "Горная улица 98",
        "postal_code": "392110",
        "floors": 10,
        "year": null,
        "parking": "есть",
        "rating": 4.0,
        "views": 97422
    },
    {
        "city": "Лас-Росас",
        "building": "Пирс 54",
        "street": "Лесная улица 6",
        "postal_code": "165209",
        "floors": 10,
        "year": null,
        "parking": "есть",
        "rating": 0.8,
        "views": 2865
    },
    {
        "city": "Бильбао",
        "building": "Башня 69",
        "street": "Зимняя улица 85",
        "postal_code": "946048",
        "floors": 10,
        "year": null,
        "parking": "есть",
        "rating": 0.8,
        "views": 78018
    },
    {
        "city": "Белград",
        "building": "Нора 49",
        "street": "Школьная улица 11",
        "postal_code": "203091",
        "floors": 2,
        "year": null,
        "parking": "есть",
        "rating": 0.3,
        "views": 68883
    },
    {
        "city": "Камбадос",
        "building": "Церковь 20",
        "street": "Вроцлавская улица 2",
        "postal_code": "671064",
        "floors": 3,
        "year": null,
        "parking": "есть",
        "rating": 0.8,
        "views": 99029
    },
    {
        "city": "Виго",
        "building": "Гараж 65",
        "street": "Петербургская улица 11",
        "postal_code": "112432",
        "floors": 5,
        "year": null,
        "parking": "есть",
        "rating": 0.2,
        "views": 50024
    },
    {
        "city": "Картахена",
        "building": "Цирк 99",
        "street": "Весенняя улица 77",
        "postal_code": "491055",
        "floors": 9,
        "year": null,
        "parking": "есть",
        "rating": 1.7,
        "views": 96927
    },
    {
        "city": "Навалькарнеро",
        "building": "Ламарий 45",
        "street": "Полевая улица 5",
        "postal_code": "951649",
        "floors": 1,
        "year": null,
        "parking": "есть",
        "rating": 1.7,
        "views": 87698
    },
    {
        "city": "Санкт-Петербург",
        "building": "Сеть 81",
        "street": "Солнечная улица 28",
        "postal_code": "443385",
        "floors": 6,
        "year": null,
        "parking": "есть",
        "rating": 1.6,
        "views": 61841
    },
    {
        "city": "Сан-Себастьян",
        "building": "Школа 6",
        "street": "Спортивная улица 64",
        "postal_code": "820465",
        "floors": 6,
        "year": null,
        "parking": "есть",
        "rating": 3.7,
        "views": 43689
    },
    {
        "city": "Вильнюс",
        "building": "Страусятник 77",
        "street": "Спортивная улица 51",
        "postal_code": "219641",
        "floors": 4,
        "year": null,
        "parking": "есть",
        "rating": 2.3,
        "views": 33559
    },
    {
        "city": "Куэнка",
        "building": "Пандус 70",
        "street": "Спортивная улица 85",
        "postal_code": "803503",
        "floors": 2,
        "year": null,
        "parking": "есть",
        "rating": 1.0,
        "views": 99412
    },
    {
        "city": "Эльче",
        "building": "Больница 82",
        "street": "Весенняя улица 79",
        "postal_code": "846889",
        "floors": 7,
        "year": null,
        "parking": "есть",
        "rating": 0.3,
        "views": 92269
    },
    {
        "city": "Кадакес",
        "building": "Университет 76",
        "street": "Школьная улица 51",
        "postal_code": "741665",
        "floors": 10,
        "year": null,
        "parking": "есть",
        "rating": 4.8,
        "views": 30722
    },
    {
        "city": "Луго",
        "building": "Жилой дом 25",
        "street": "Юбилейная улица 93",
        "postal_code": "827644",
        "floors": 1,
        "year": null,
        "parking": "есть",
        "rating": 2.9,
        "views": 7594
    },
    {
        "city": "Лас-Росас",
        "building": "Академия 59",
        "street": "Вроцлавская улица 68",
        "postal_code": "280362",
        "floors": 8,
        "year": null,
        "parking": "есть",
        "rating": 2.3,
        "views": 20389
    },
    {
        "city": "Осера",
        "building": "Магазин 13",
        "street": "Петербургская улица 5",
        "postal_code": "434200",
        "floors": 10,
        "year": null,
        "parking": "есть",
        "rating": 2.2,
        "views": 93242
    },
    {
        "city": "Кордова",
        "building": "Убежище 87",
        "street": "Минская улица 74",
        "postal_code": "395740",
        "floors": 4,
        "year": null,
        "parking": "есть",
        "rating": 3.7,
        "views": 98014
    },
    {
        "city": "Камбадос",
        "building": "Термитник 50",
        "street": "Морская улица 13",
        "postal_code": "857268",
        "floors": 10,
        "year": null,
        "parking": "есть",
        "rating": 1.6,
        "views": 72405
    },
    {
        "city": "Тбилиси",
        "building": "Кладбище 83",
        "street": "Петербургская улица 18",
        "postal_code": "969908",
        "floors": 4,
        "year": null,
        "parking": "есть",
        "rating": 5.0,
        "views": 81318
    }
]