[
    {
        "city": "Сеговия",
        "building": "Конюшня 82",
        "street": "Центральная улица 65",
        "postal_code": "117675",
        "floors": 5,
        "year": null,
        "parking": "нет",
        "rating": 5.0,
        "views": 87905
    },
    {
        "city": "Артейхо",
        "building": "Гнездо 99",
        "street": "Осенняя улица 83",
        "postal_code": "745112",
        "floors": 1,
        "year": null,
        "parking": "нет",
        "rating": 5.0,
        "views": 53758
    },
    {
        "city": "Тбилиси",
        "building": "Кладбище 83",
        "street": "Петербургская улица 18",
        "postal_code": "969908",
        "floors": 4,
        "year": null,
        "parking": "есть",
        "rating": 5.0,
        "views": 81318
    },
    {
        "city": "Астана",
        "building": "Порт 42",
        "street": "Центральная улица 43",
        "postal_code": "162168",
        "floors": 9,
        "year": null,
        "parking": "есть",
        "rating": 4.9,
        "views": 12016
    },
    {
        "city": "Тудела",
        "building": "Водопровод 76",
        "street": "Краковская улица 63",
        "postal_code": "567384",
        "floors": 5,
        "year": null,
        "parking": "нет",
        "rating": 4.9,
        "views": 10052
    },
    {
        "city": "Кадакес",
        "building": "Университет 76",
        "street": "Школьная улица 51",
        "postal_code": "741665",
        "floors": 10,
        "year": null,
        "parking": "есть",
        "rating": 4.8,
        "views": 30722
    },
    {
        "city": "Авилес",
        "building": "Подвал 57",
        "street": "Минская улица 21",
        "postal_code": "438476",
        "floors": 9,
        "year": null,
        "parking": "нет",
        "rating": 4.7,
        "views": 96876
    },
    {
        "city": "Ташкент",
        "building": "Плантация 69",
        "street": "Речная улица 94",
        "postal_code": "993300",
        "floors": 10,
        "year": null,
        "parking": "нет",
        "rating": 4.7,
        "views": 5256
    },
    {
        "city": "Тарраса",
        "building": "Путепровод 44",
        "street": "Садовая улица 62",
        "postal_code": "295168",
        "floors": 6,
        "year": null,
        "parking": "нет",
        "rating": 4.6,
        "views": 86835
    },
    {
        "city": "Гранада",
        "building": "Парк 91",
        "street": "Весенняя улица 7",
        "postal_code": "704057",
        "floors": 5,
        "year": null,
        "parking": "есть",
        "rating": 4.5,
        "views": 84770
    },
    {
        "city": "Алма-Ата",
        "building": "Пирс 45",
        "street": "Московская улица 58",
        "postal_code": "144917",
        "floors": 10,
        "year": null,
        "parking": "нет",
        "rating": 4.4,
        "views": 92025
    },
    {
        "city": "Самора",
        "building": "Альпакарий 35",
        "street": "Весенняя улица 45",
        "postal_code": "848546",
        "floors": 5,
        "year": null,
        "parking": "нет",
        "rating": 4.4,
        "views": 55855
    },
    {
        "city": "Бильбао",
        "building": "Школа 58",
        "street": "Морская улица 53",
        "postal_code": "898684",
        "floors": 5,
        "year": null,
        "parking": "нет",
        "rating": 4.4,
        "views": 54423
    },
    {
        "city": "Вильнюс",
        "building": "Крольчатник 12",
        "street": "Минская улица 38",
        "postal_code": "532132",
        "floors": 9,
        "year": null,
        "parking": "нет",
        "rating": 4.4,
        "views": 68391
    },
    {
        "city": "Куэнка",
        "building": "Причал 53",
        "street": "Спортивная улица 64",
        "postal_code": "903133",
        "floors": 5,
        "year": null,
        "parking": "есть",
        "rating": 4.2,
        "views": 90383
    },
    {
        "city": "Астана",
        "building": "Порт 18",
        "street": "Лесная улица 80",
        "postal_code": "732325",
        "floors": 6,
        "year": null,
        "parking": "нет",
        "rating": 4.2,
        "views": 8936
    },
    {
        "city": "Эльче",
        "building": "Котельная 91",
        "street": "Горная улица 98",
        "postal_code": "392110",
        "floors": 10,
        "year": null,
        "parking": "есть",
        "rating": 4.0,
        "views": 97422
    },
    {
        "city": "Хихон",
        "building": "Вокзал 94",
        "street": "Летняя улица 15",
        "postal_code": "142657",
        "floors": 7,
        "year": null,
        "parking": "есть",
        "rating": 3.9,
        "views": 12831
    },
    {
        "city": "Киев",
        "building": "Пасека 79",
        "street": "Петербургская улица 50",
        "postal_code": "942936",
        "floors": 5,
        "year": null,
        "parking": "есть",
        "rating": 3.9,
        "views": 78662
    },
    {
        "city": "Сан-Себастьян",
        "building": "Школа 6",
        "street": "Спортивная улица 64",
        "postal_code": "820465",
        "floors": 6,
        "year": null,
        "parking": "есть",
        "rating": 3.7,
        "views": 43689
    },
    {
        "city": "Кордова",
        "building": "Убежище 87",
        "street": "Минская улица 74",
        "postal_code": "395740",
        "floors": 4,
        "year": null,
        "parking": "есть",
        "rating": 3.7,
        "views": 98014
    },
    {
        "city": "Севилья",
        "building": "Усадьба 61",
        "street": "Весенняя улица 98",
        "postal_code": "170053",
        "floors": 5,
        "year": null,
        "parking": "нет",
        "rating": 3.6,
        "views": 23497
    },
    {
        "city": "Ташкент",
        "building": "Дуплянка 53",
        "street": "Лесная улица 35",
        "postal_code": "489444",
        "floors": 4,
        "year": null,
        "parking": "есть",
        "rating": 3.5,
        "views": 53074
    },
    {
        "city": "Ереван",
        "building": "Стадион 91",
        "street": "Центральная улица 82",
        "postal_code": "278982",
        "floors": 10,
        "year": null,
        "parking": "нет",
        "rating": 3.5,
        "views": 70370
    },
    {
        "city": "Касерес",
        "building": "Бункер 46",
        "street": "Центральная улица 26",
        "postal_code": "308384",
        "floors": 8,
        "year": null,
        "parking": "есть",
        "rating": 3.3,
        "views": 29193
    },
    {
        "city": "Тбилиси",
        "building": "Осатаник 11",
        "street": "Полевая улица 44",
        "postal_code": "508447",
        "floors": 1,
        "year": null,
        "parking": "нет",
        "rating": 3.3,
        "views": 34753
    },
    {
        "city": "Любляна",
        "building": "Кубло 76",
        "street": "Солнечная улица 100",
        "postal_code": "140507",
        "floors": 3,
        "year": null,
        "parking": "есть",
        "rating": 3.1,
        "views": 70028
    },
    {
        "city": "Луго",
        "building": "Жилой дом 25",
        "street": "Юбилейная улица 93",
        "postal_code": "827644",
        "floors": 1,
        "year": null,
        "parking": "есть",
        "rating": 2.9,
        "views": 7594
    },
    {
        "city": "Рига",
        "building": "Почта 2",
        "street": "Краковская улица 37",
        "postal_code": "873270",
        "floors": 10,
        "year": null,
        "parking": "нет",
        "rating": 2.7,
        "views": 11523
    },
    {
        "city": "Авилес",
        "building": "Ферма 88",
        "street": "Вроцлавская улица 100",
        "postal_code": "620260",
        "floors": 6,
        "year": null,
        "parking": "нет",
        "rating": 2.7,
        "views": 81303
    },
    {
        "city": "Хихон",
        "building": "Причал 63",
        "street": "Краковская улица 29",
        "postal_code": "146920",
        "floors": 10,
        "year": null,
        "parking": "нет",
        "rating": 2.6,
        "views": 86967
    },
    {
        "city": "Льейда",
        "building": "Гнездо 40",
        "street": "Морская улица 1",
        "postal_code": "788754",
        "floors": 4,
        "year": null,
        "parking": "нет",
        "rating": 2.6,
        "views": 71897
    },
    {
        "city": "Монсон",
        "building": "Бункер 44",
        "street": "Школьная улица 10",
        "postal_code": "785726",
        "floors": 2,
        "year": null,
        "parking": "нет",
        "rating": 2.6,
        "views": 34026
    },
    {
        "city": "Тудела",
        "building": "Вилла 6",
        "street": "Садовая улица 96",
        "postal_code": "167933",
        "floors": 4,
        "year": null,
        "parking": "есть",
        "rating": 2.5,
        "views": 99223
    },
    {
        "city": "Кордова",
        "building": "Электростанция 50",
        "street": "Школьная улица 95",
        "postal_code": "720452",
        "floors": 8,
        "year": null,
        "parking": "нет",
        "rating": 2.5,
        "views": 63700
    },
    {
        "city": "Касерес",
        "building": "Университет 63",
        "street": "Весенняя улица 64",
        "postal_code": "649872",
        "floors": 3,
        "year": null,
        "parking": "нет",
        "rating": 2.4,
        "views": 88665
    },
    {
        "city": "Семана",
        "building": "Курятник 75",
        "street": "Московская улица 20",
        "postal_code": "722299",
        "floors": 2,
        "year": null,
        "parking": "есть",
        "rating": 2.3,
        "views": 64865
    },
    {
        "city": "Вильнюс",
        "building": "Страусятник 77",
        "street": "Спортивная улица 51",
        "postal_code": "219641",
        "floors": 4,
        "year": null,
        "parking": "есть",
        "rating": 2.3,
        "views": 33559
    },
    {
        "city": "Лас-Росас",
        "building": "Академия 59",
        "street": "Вроцлавская улица 68",
        "postal_code": "280362",
        "floors": 8,
        "year": null,
        "parking": "есть",
        "rating": 2.3,
        "views": 20389
    },
    {
        "city": "Осера",
        "building": "Магазин 13",
        "street": "Петербургская улица 5",
        "postal_code": "434200",
        "floors": 10,
        "year": null,
        "parking": "есть",
        "rating": 2.2,
        "views": 93242
    },
    {
        "city": "Мадрид",
        "building": "Нора 19",
        "street": "Осенняя улица 85",
        "postal_code": "772996",
        "floors": 2,
        "year": null,
        "parking": "нет",
        "rating": 2.0,
        "views": 24347
    },
    {
        "city": "Вильявисиоса",
        "building": "Конюшня 68",
        "street": "Осенняя улица 72",
        "postal_code": "451423",
        "floors": 2,
        "year": null,
        "parking": "нет",
        "rating": 2.0,
        "views": 70027
    },
    {
        "city": "Таллин",
        "building": "Развязка 21",
        "street": "Московская улица 64",
        "postal_code": "482048",
        "floors": 4,
        "year": null,
        "parking": "есть",
        "rating": 1.7,
        "views": 80762
    },
    {
        "city": "Сантьяго-де-Компостела",
        "building": "Детский сад 60",
        "street": "Лесная улица 31",
        "postal_code": "874918",
        "floors": 10,
        "year": null,
        "parking": "есть",
        "rating": 1.7,
        "views": 67616
    },
    {
        "city": "Картахена",
        "building": "Цирк 99",
        "street": "Весенняя улица 77",
        "postal_code": "491055",
        "floors": 9,
        "year": null,
        "parking": "есть",
        "rating": 1.7,
        "views": 96927
    },
    {
        "city": "Навалькарнеро",
        "building": "Ламарий 45",
        "street": "Полевая улица 5",
        "postal_code": "951649",
        "floors": 1,
        "year": null,
        "parking": "есть",
        "rating": 1.7,
        "views": 87698
    },
    {
        "city": "Москва",
        "building": "Канализация 2",
        "street": "Лесная улица 67",
        "postal_code": "943608",
        "floors": 5,
        "year": null,
        "parking": "нет",
        "rating": 1.6,
        "views": 68867
    },
    {
        "city": "Санхенхо",
        "building": "Мануфактура 88",
        "street": "Парковая улица 94",
        "postal_code": "968276",
        "floors": 1,
        "year": null,
        "parking": "есть",
        "rating": 1.6,
        "views": 89829
    },
    {
        "city": "Санкт-Петербург",
        "building": "Сеть 81",
        "street": "Солнечная улица 28",
        "postal_code": "443385",
        "floors": 6,
        "year": null,
        "parking": "есть",
        "rating": 1.6,
        "views": 61841
    },
    {
        "city": "Камбадос",
        "building": "Термитник 50",
        "street": "Морская улица 13",
        "postal_code": "857268",
        "floors": 10,
        "year": null,
        "parking": "есть",
        "rating": 1.6,
        "views": 72405
    },
    {
        "city": "Мадрид",
        "building": "Волчатник 52",
        "street": "Краковская улица 26",
        "postal_code": "316276",
        "floors": 8,
        "year": null,
        "parking": "нет",
        "rating": 1.5,
        "views": 28485
    },
    {
        "city": "Вроцлав",
        "building": "Кладбище 95",
        "street": "Речная улица 92",
        "postal_code": "143543",
        "floors": 5,
        "year": null,
        "parking": "нет",
        "rating": 1.5,
        "views": 49233
    },
    {
        "city": "Кадакес",
        "building": "Фабрика 96",
        "street": "Весенняя улица 50",
        "postal_code": "349383",
        "floors": 1,
        "year": null,
        "parking": "нет",
        "rating": 1.5,
        "views": 31978
    },
    {
        "city": "Гранада",
        "building": "Вилла 12",
        "street": "Морская улица 76",
        "postal_code": "680510",
        "floors": 6,
        "year": null,
        "parking": "есть",
        "rating": 1.4,
        "views": 68653
    },
    {
        "city": "Авилес",
        "building": "Скворечник 68",
        "street": "Полевая улица 35",
        "postal_code": "660467",
        "floors": 1,
        "year": null,
        "parking": "есть",
        "rating": 1.4,
        "views": 48935
    },
    {
        "city": "Москва",
        "building": "Ферма 1",
        "street": "Московская улица 23",
        "postal_code": "228873",
        "floors": 9,
        "year": null,
        "parking": "есть",
        "rating": 1.4,
        "views": 83910
    },
    {
        "city": "Рига",
        "building": "Дупло 85",
        "street": "Морская улица 1",
        "postal_code": "468330",
        "floors": 4,
        "year": null,
        "parking": "нет",
        "rating": 1.2,
        "views": 79653
    },
    {
        "city": "Аликанте",
        "building": "Тенета 77",
        "street": "Лесная улица 75",
        "postal_code": "637304",
        "floors": 8,
        "year": null,
        "parking": "нет",
        "rating": 1.1,
        "views": 56445
    },
    {
        "city": "Пласенсия",
        "building": "Отель 32",
        "street": "Минская улица 44",
        "postal_code": "746241",
        "floors": 4,
        "year": null,
        "parking": "нет",
        "rating": 1.1,
        "views": 84687
    },
    {
        "city": "Сория",
        "building": "Свиноферма 5",
        "street": "Минская улица 69",
        "postal_code": "366254",
        "floors": 9,
        "year": null,
        "parking": "есть",
        "rating": 1.0,
        "views": 66507
    },
    {
        "city": "Алькала-де-Энарес",
        "building": "Театр 77",
        "street": "Садовая улица 50",
        "postal_code": "194591",
        "floors": 7,
        "year": null,
        "parking": "есть",
        "rating": 1.0,
        "views": 60899
    },
    {
        "city": "Куэнка",
        "building": "Пандус 70",
        "street": "Спортивная улица 85",
        "postal_code": "803503",
        "floors": 2,
        "year": null,
        "parking": "есть",
        "rating": 1.0,
        "views": 99412
    },
    {
        "city": "Мурсия",
        "building": "Водопровод 66",
        "street": "Лесная улица 50",
        "postal_code": "264575",
        "floors": 2,
        "year": null,
        "parking": "есть",
        "rating": 0.9,
        "views": 11041
    },
    {
        "city": "Лас-Росас",
        "building": "Пирс 54",
        "street": "Лесная улица 6",
        "postal_code": "165209",
        "floors": 10,
        "year": null,
        "parking": "есть",
        "rating": 0.8,
        "views": 2865
    },
    {
        "city": "Бильбао",
        "building": "Башня 69",
        "street": "Зимняя улица 85",
        "postal_code": "946048",
        "floors": 10,
        "year": null,
        "parking": "есть",
        "rating": 0.8,
        "views": 78018
    },
    {
        "city": "Камбадос",
        "building": "Церковь 20",
        "street": "Вроцлавская улица 2",
        "postal_code": "671064",
        "floors": 3,
        "year": null,
        "parking": "есть",
        "rating": 0.8,
        "views": 99029
    },
    {
        "city": "Трухильо",
        "building": "Ферма 62",
        "street": "Спортивная улица 56",
        "postal_code": "784837",
        "floors": 10,
        "year": null,
        "parking": "есть",
        "rating": 0.7,
        "views": 96992
    },
    {
        "city": "Тбилиси",
        "building": "Дупло 41",
        "street": "Киевская улица 38",
        "postal_code": "140836",
        "floors": 5,
        "year": null,
        "parking": "нет",
        "rating": 0.7,
        "views": 87384
    },
    {
        "city": "Махадаонда",
        "building": "Ламарий 2",
        "street": "Киевская улица 77",
        "postal_code": "955625",
        "floors": 10,
        "year": null,
        "parking": "нет",
        "rating": 0.6,
        "views": 79722
    },
    {
        "city": "Алма-Ата",
        "building": "Ферма 74",
        "street": "Зимняя улица 93",
        "postal_code": "731560",
        "floors": 8,
        "year": null,
        "parking": "есть",
        "rating": 0.4,
        "views": 23752
    },
    {
        "city": "Гранада",
        "building": "Свиноферма 98",
        "street": "Речная улица 1",
        "postal_code": "647182",
        "floors": 6,
        "year": null,
        "parking": "нет",
        "rating": 0.4,
        "views": 71892
    },
    {
        "city": "Белград",
        "building": "Нора 49",
        "street": "Школьная улица 11",
        "postal_code": "203091",
        "floors": 2,
        "year": null,
        "parking": "есть",
        "rating": 0.3,
        "views": 68883
    },
    {
        "city": "Бургос",
        "building": "Сеть 87",
        "street": "Петербургская улица 72",
        "postal_code": "820382",
        "floors": 8,
        "year": null,
        "parking": "нет",
        "rating": 0.3,
        "views": 81119
    },
    {
        "city": "Эльче",
        "building": "Больница 82",
        "street": "Весенняя улица 79",
        "postal_code": "846889",
        "floors": 7,
        "year": null,
        "parking": "есть",
        "rating": 0.3,
        "views": 92269
    },
    {
        "city": "София",
        "building": "Водопровод 31",
        "street": "Юбилейная улица 10",
        "postal_code": "453780",
        "floors": 7,
        "year": null,
        "parking": "есть",
        "rating": 0.2,
        "views": 88343
    },
    {
        "city": "Виго",
        "building": "Гараж 65",
        "street": "Петербургская улица 11",
        "postal_code": "112432",
        "floors": 5,
        "year": null,
        "parking": "есть",
        "rating": 0.2,
        "views": 50024
    }
]